IRIDIUM 171             
1 43929U 19002H   25192.55142305  .00000018  00000+0 -45679-6 0  9999
2 43929  86.4007 136.2537 0001937  87.3789 272.7628 14.34217534340132
IRIDIUM 170             
1 43930U 19002J   25192.37509011  .00000527  00000+0  79727-4 0  9995
2 43930  86.6121 136.0767 0002411  78.6618 281.4870 14.72247777349115
IRIDIUM 167             
1 43931U 19002K   25192.54507992 -.00000006  00000+0 -93448-5 0  9992
2 43931  86.3999 136.0073 0001738  78.1896 281.9495 14.34217402340131
IRIDIUM 181             
1 56726U 23068S   25192.49115524  .00000135  00000+0  34170-4 0  9992
2 56726  86.4520 199.0868 0002010 103.0389 257.1036 14.43310527113291
IRIDIUM 177             
1 56727U 23068T   25192.54287620  .00000722  00000+0  91493-4 0  9999
2 56727  86.1990 130.5727 0002239  87.4999 272.6479 14.80227650115974
IRIDIUM 174             
1 56728U 23068U   25192.56664358  .00000599  00000+0  91009-4 0  9994
2 56728  86.6130 136.1093 0003151  81.8948 278.2626 14.72255102115903
IRIDIUM 178             
1 56729U 23068V   25192.80238756  .00000792  00000+0  10085-3 0  9990
2 56729  86.6579 167.5635 0002732  86.6155 273.5379 14.80231804116016
IRIDIUM 179             
1 56730U 23068W   25192.45900227  .00000343  00000+0  41683-4 0  9993
2 56730  86.6818 175.6492 0002494  86.5795 273.5712 14.80231817115967
